{"type": "FeatureCollection", "features": [ {"type": "Feature", "properties": {"norad_id": 42969, "name": "SENTINEL-5P", "group": "resource", "lat": -65.50881014749207, "lon": 85.08119264806867, "alt_km": 834.8216869280113, "timestamp": "2025-12-12T07:43:20.161121+00:00", "meta": {"OBJECT_NAME": "SENTINEL-5P", "OBJECT_ID": "2017-064A", "EPOCH": "2025-12-11T20:24:44.039808", "MEAN_MOTION": 14.1951721, "ECCENTRICITY": 9.479e-05, "INCLINATION": 98.7784, "RA_OF_ASC_NODE": 284.4425, "ARG_OF_PERICENTER": 88.5095, "MEAN_ANOMALY": 271.6189, "EPHEMERIS_TYPE": 0, "CLASSIFICATION_TYPE": "U", "NORAD_CAT_ID": 42969, "ELEMENT_SET_NO": 999, "REV_AT_EPOCH": 42298, "BSTAR": 9.6726654e-05, "MEAN_MOTION_DOT": 1.6e-06, "MEAN_MOTION_DDOT": 0}, "tle": {"line1": "1 42969U 17064A   25345.85050972  .00000160  00000+0  96727-4 0  9994", "line2": "2 42969  98.7784 284.4425 0000947  88.5095 271.6189 14.19517210422989"}}, "geometry": {"type": "Point", "coordinates": [85.08119264806867, -65.50881014749207]}}, {"type": "Feature", "properties": {"norad_id": 42987, "name": "SKYSAT-C11", "group": "resource", "lat": 11.330237561567948, "lon": -54.70256953361074, "alt_km": 425.55419199925564, "timestamp": "2025-12-12T07:43:20.161132+00:00", "meta": {"OBJECT_NAME": "SKYSAT-C11", "OBJECT_ID": "2017-068A", "EPOCH": "2025-12-11T23:14:12.036768", "MEAN_MOTION": 15.47394077, "ECCENTRICITY": 9.987e-05, "INCLINATION": 97.414, "RA_OF_ASC_NODE": 123.4401, "ARG_OF_PERICENTER": 103.6919, "MEAN_ANOMALY": 256.4442, "EPHEMERIS_TYPE": 0, "CLASSIFICATION_TYPE": "U", "NORAD_CAT_ID": 42987, "ELEMENT_SET_NO": 999, "REV_AT_EPOCH": 45419, "BSTAR": 0.00052425573, "MEAN_MOTION_DOT": 0.0002679, "MEAN_MOTION_DDOT": 0}, "tle": {"line1": "1 42987U 17068A   25345.96819487  .00026790  00000+0  52426-3 0  9998", "line2": "2 42987  97.4140 123.4401 0000998 103.6919 256.4442 15.47394077454194"}}, "geometry": {"type": "Point", "coordinates": [-54.70256953361074, 11.330237561567948]}}, {"type": "Feature", "properties": {"norad_id": 42988, "name": "SKYSAT-C10", "group": "resource", "lat": -82.28881200038464, "lon": -168.4199956724113, "alt_km": 480.65201849733967, "timestamp": "2025-12-12T07:43:20.161143+00:00", "meta": {"OBJECT_NAME": "SKYSAT-C10", "OBJECT_ID": "2017-068B", "EPOCH": "2025-12-11T21:07:59.266848", "MEAN_MOTION": 15.32032287, "ECCENTRICITY": 0.00053378, "INCLINATION": 97.4255, "RA_OF_ASC_NODE": 116.7289, "ARG_OF_PERICENTER": 105.8367, "MEAN_ANOMALY": 254.3464, "EPHEMERIS_TYPE": 0, "CLASSIFICATION_TYPE": "U", "NORAD_CAT_ID": 42988, "ELEMENT_SET_NO": 999, "REV_AT_EPOCH": 45366, "BSTAR": 0.00051102238, "MEAN_MOTION_DOT": 0.00015748, "MEAN_MOTION_DDOT": 0}, "tle": {"line1": "1 42988U 17068B   25345.88054707  .00015748  00000+0  51102-3 0  9997", "line2": "2 42988  97.4255 116.7289 0005337 105.8367 254.3464 15.32032287453662"}}, "geometry": {"type": "Point", "coordinates": [-168.4199956724113, -82.28881200038464]}}, {"type": "Feature", "properties": {"norad_id": 42989, "name": "SKYSAT-C9", "group": "resource", "lat": 65.22005243971847, "lon": -47.033339164371064, "alt_km": 444.9294733513152, "timestamp": "2025-12-12T07:43:20.161153+00:00", "meta": {"OBJECT_NAME": "SKYSAT-C9", "OBJECT_ID": "2017-068C", "EPOCH": "2025-12-11T21:50:56.343840", "MEAN_MOTION": 15.36015875, "ECCENTRICITY": 0.00106384, "INCLINATION": 97.4186, "RA_OF_ASC_NODE": 116.1574, "ARG_OF_PERICENTER": 90.1838, "MEAN_ANOMALY": 270.0625, "EPHEMERIS_TYPE": 0, "CLASSIFICATION_TYPE": "U", "NORAD_CAT_ID": 42989, "ELEMENT_SET_NO": 999, "REV_AT_EPOCH": 45395, "BSTAR": 0.00055433683, "MEAN_MOTION_DOT": 0.0001942, "MEAN_MOTION_DDOT": 0}, "tle": {"line1": "1 42989U 17068C   25345.91037435  .00019420  00000+0  55434-3 0  9994", "line2": "2 42989  97.4186 116.1574 0010638  90.1838 270.0625 15.36015875453950"}}, "geometry": {"type": "Point", "coordinates": [-47.033339164371064, 65.22005243971847]}}, {"type": "Feature", "properties": {"norad_id": 42990, "name": "SKYSAT-C8", "group": "resource", "lat": 82.5197646142401, "lon": 32.806554428931975, "alt_km": 459.8448819760897, "timestamp": "2025-12-12T07:43:20.161163+00:00", "meta": {"OBJECT_NAME": "SKYSAT-C8", "OBJECT_ID": "2017-068D", "EPOCH": "2025-12-11T21:56:05.347392", "MEAN_MOTION": 15.32889856, "ECCENTRICITY": 0.00016329, "INCLINATION": 97.4277, "RA_OF_ASC_NODE": 115.9102, "ARG_OF_PERICENTER": 352.601, "MEAN_ANOMALY": 7.5208, "EPHEMERIS_TYPE": 0, "CLASSIFICATION_TYPE": "U", "NORAD_CAT_ID": 42990, "ELEMENT_SET_NO": 999, "REV_AT_EPOCH": 45358, "BSTAR": 0.00052146215, "MEAN_MOTION_DOT": 0.00016504, "MEAN_MOTION_DDOT": 0}, "tle": {"line1": "1 42990U 17068D   25345.91395078  .00016504  00000+0  52146-3 0  9993", "line2": "2 42990  97.4277 115.9102 0001632 352.6010   7.5208 15.32889856453582"}}, "geometry": {"type": "Point", "coordinates": [32.806554428931975, 82.5197646142401]}}, {"type": "Feature", "properties": {"norad_id": 42991, "name": "SKYSAT-C7", "group": "resource", "lat": -54.02291093532499, "lon": 127.71565417139283, "alt_km": 478.0067283185608, "timestamp": "2025-12-12T07:43:20.161173+00:00", "meta": {"OBJECT_NAME": "SKYSAT-C7", "OBJECT_ID": "2017-068E", "EPOCH": "2025-12-11T20:59:22.535232", "MEAN_MOTION": 15.32294521, "ECCENTRICITY": 0.00076872, "INCLINATION": 97.4285, "RA_OF_ASC_NODE": 116.9127, "ARG_OF_PERICENTER": 59.5995, "MEAN_ANOMALY": 300.6005, "EPHEMERIS_TYPE": 0, "CLASSIFICATION_TYPE": "U", "NORAD_CAT_ID": 42991, "ELEMENT_SET_NO": 999, "REV_AT_EPOCH": 45364, "BSTAR": 0.00051898565, "MEAN_MOTION_DOT": 0.00016134, "MEAN_MOTION_DDOT": 0}, "tle": {"line1": "1 42991U 17068E   25345.87456638  .00016134  00000+0  51899-3 0  9992", "line2": "2 42991  97.4285 116.9127 0007687  59.5995 300.6005 15.32294521453649"}}, "geometry": {"type": "Point", "coordinates": [127.71565417139283, -54.02291093532499]}}, {"type": "Feature", "properties": {"norad_id": 42992, "name": "SKYSAT-C6", "group": "resource", "lat": 62.61801898069845, "lon": 103.20321601343034, "alt_km": 461.9974478635868, "timestamp": "2025-12-12T07:43:20.161183+00:00", "meta": {"OBJECT_NAME": "SKYSAT-C6", "OBJECT_ID": "2017-068F", "EPOCH": "2025-12-11T22:02:13.296480", "MEAN_MOTION": 15.31460261, "ECCENTRICITY": 0.00051909, "INCLINATION": 97.4318, "RA_OF_ASC_NODE": 117.3957, "ARG_OF_PERICENTER": 84.6531, "MEAN_ANOMALY": 275.5302, "EPHEMERIS_TYPE": 0, "CLASSIFICATION_TYPE": "U", "NORAD_CAT_ID": 42992, "ELEMENT_SET_NO": 999, "REV_AT_EPOCH": 45363, "BSTAR": 0.00052080863, "MEAN_MOTION_DOT": 0.00015766, "MEAN_MOTION_DDOT": 0}, "tle": {"line1": "1 42992U 17068F   25345.91820945  .00015766  00000+0  52081-3 0  9998", "line2": "2 42992  97.4318 117.3957 0005190  84.6531 275.5302 15.31460261453639"}}, "geometry": {"type": "Point", "coordinates": [103.20321601343034, 62.61801898069845]}}, {"type": "Feature", "properties": {"norad_id": 43111, "name": "CARTOSAT-2F", "group": "resource", "lat": -8.473500618309817, "lon": -137.14844419852218, "alt_km": 511.74738967666235, "timestamp": "2025-12-12T07:43:20.161213+00:00", "meta": {"OBJECT_NAME": "CARTOSAT-2F", "OBJECT_ID": "2018-004A", "EPOCH": "2025-12-11T22:59:31.079904", "MEAN_MOTION": 15.19265639, "ECCENTRICITY": 9.762e-05, "INCLINATION": 97.4316, "RA_OF_ASC_NODE": 43.6079, "ARG_OF_PERICENTER": 137.4555, "MEAN_ANOMALY": 222.6756, "EPHEMERIS_TYPE": 0, "CLASSIFICATION_TYPE": "U", "NORAD_CAT_ID": 43111, "ELEMENT_SET_NO": 999, "REV_AT_EPOCH": 43890, "BSTAR": 0.00046494768, "MEAN_MOTION_DOT": 9.742e-05, "MEAN_MOTION_DDOT": 0}, "tle": {"line1": "1 43111U 18004A   25345.95799861  .00009742  00000+0  46495-3 0  9998", "line2": "2 43111  97.4316  43.6079 0000976 137.4555 222.6756 15.19265639438904"}}, "geometry": {"type": "Point", "coordinates": [-137.14844419852218, -8.473500618309817]}}, {"type": "Feature", "properties": {"norad_id": 43259, "name": "GAOFEN-1 02", "group": "resource", "lat": 18.90978460689168, "lon": 41.3214853711497, "alt_km": 642.1518174776929, "timestamp": "2025-12-12T07:43:20.161225+00:00", "meta": {"OBJECT_NAME": "GAOFEN-1 02", "OBJECT_ID": "2018-031A", "EPOCH": "2025-12-12T02:45:22.780800", "MEAN_MOTION": 14.76413458, "ECCENTRICITY": 0.0001853, "INCLINATION": 98.0808, "RA_OF_ASC_NODE": 43.9042, "ARG_OF_PERICENTER": 219.1355, "MEAN_ANOMALY": 140.9721, "EPHEMERIS_TYPE": 0, "CLASSIFICATION_TYPE": "U", "NORAD_CAT_ID": 43259, "ELEMENT_SET_NO": 999, "REV_AT_EPOCH": 41509, "BSTAR": 0.00022493, "MEAN_MOTION_DOT": 1.512e-05, "MEAN_MOTION_DDOT": 0}, "tle": {"line1": "1 43259U 18031A   25346.11484700  .00001512  00000+0  22493-3 0  9992", "line2": "2 43259  98.0808  43.9042 0001853 219.1355 140.9721 14.76413458415099"}}, "geometry": {"type": "Point", "coordinates": [41.3214853711497, 18.90978460689168]}}, {"type": "Feature", "properties": {"norad_id": 43260, "name": "GAOFEN-1 03", "group": "resource", "lat": 44.98187835383274, "lon": -127.85029043148562, "alt_km": 638.1614377020978, "timestamp": "2025-12-12T07:43:20.161236+00:00", "meta": {"OBJECT_NAME": "GAOFEN-1 03", "OBJECT_ID": "2018-031B", "EPOCH": "2025-12-12T00:36:34.672320", "MEAN_MOTION": 14.76434629, "ECCENTRICITY": 0.00020346, "INCLINATION": 98.08, "RA_OF_ASC_NODE": 43.6914, "ARG_OF_PERICENTER": 325.4768, "MEAN_ANOMALY": 34.6309, "EPHEMERIS_TYPE": 0, "CLASSIFICATION_TYPE": "U", "NORAD_CAT_ID": 43260, "ELEMENT_SET_NO": 999, "REV_AT_EPOCH": 41507, "BSTAR": 0.00022273804, "MEAN_MOTION_DOT": 1.497e-05, "MEAN_MOTION_DDOT": 0}, "tle": {"line1": "1 43260U 18031B   25346.02540130  .00001497  00000+0  22274-3 0  9993", "line2": "2 43260  98.0800  43.6914 0002034 325.4768  34.6309 14.76434629415071"}}, "geometry": {"type": "Point", "coordinates": [-127.85029043148562, 44.98187835383274]}}]}